{
  "type": "FeatureCollection",
  "features": [
    {
      "type": "Feature",
      "properties": {
        "norad_id": 66912,
        "name": "1998-067XY",
        "group": "last-30-days",
        "lat": 2.4551275481946164,
        "lon": -103.9552892441467,
        "alt_km": 411.4493061837784,
        "timestamp": "2025-12-25T16:53:13.373821+00:00",
        "meta_object_name": "1998-067XY",
        "meta_object_id": "1998-067XY",
        "meta_epoch": "2025-12-25T05:18:48.744000",
        "meta_mean_motion": 15.52348997,
        "meta_eccentricity": 0.00038732,
        "meta_inclination": 51.632,
        "meta_ra_of_asc_node": 80.3904,
        "meta_arg_of_pericenter": 295.0134,
        "meta_mean_anomaly": 65.0453,
        "meta_ephemeris_type": 0,
        "meta_classification_type": "U",
        "meta_norad_cat_id": 66912,
        "meta_element_set_no": 999,
        "meta_rev_at_epoch": 354,
        "meta_bstar": 0.00084033216,
        "meta_mean_motion_dot": 0.00052036,
        "meta_mean_motion_ddot": 0,
        "tle_line1": "1 66912U 98067XY  25359.22139750  .00052036  00000+0  84033-3 0  9993",
        "tle_line2": "2 66912  51.6320  80.3904 0003873 295.0134  65.0453 15.52348997  3540"
      },
      "geometry": {
        "type": "Point",
        "coordinates": [
          -103.9552892441467,
          2.4551275481946164
        ]
      }
    },
    {
      "type": "Feature",
      "properties": {
        "norad_id": 66913,
        "name": "2025-284A",
        "group": "last-30-days",
        "lat": 52.99128500757401,
        "lon": 126.46398140468186,
        "alt_km": 543.3533461465404,
        "timestamp": "2025-12-25T16:53:13.373831+00:00",
        "meta_object_name": "2025-284A",
        "meta_object_id": "2025-284A",
        "meta_epoch": "2025-12-23T02:34:46.438752",
        "meta_mean_motion": 15.08893564,
        "meta_eccentricity": 0.0013475,
        "meta_inclination": 80.4035,
        "meta_ra_of_asc_node": 116.7336,
        "meta_arg_of_pericenter": 259.6514,
        "meta_mean_anomaly": 100.3189,
        "meta_ephemeris_type": 0,
        "meta_classification_type": "U",
        "meta_norad_cat_id": 66913,
        "meta_element_set_no": 999,
        "meta_rev_at_epoch": 269,
        "meta_bstar": 0.00055263602,
        "meta_mean_motion_dot": 8.748e-05,
        "meta_mean_motion_ddot": 0,
        "tle_line1": "1 66913U 25284A   25357.10748193  .00008748  00000+0  55264-3 0  9992",
        "tle_line2": "2 66913  80.4035 116.7336 0013475 259.6514 100.3189 15.08893564  2694"
      },
      "geometry": {
        "type": "Point",
        "coordinates": [
          126.46398140468186,
          52.99128500757401
        ]
      }
    },
    {
      "type": "Feature",
      "properties": {
        "norad_id": 66914,
        "name": "2025-284B",
        "group": "last-30-days",
        "lat": -6.894206835558296,
        "lon": 112.16032112792473,
        "alt_km": 517.1462526429386,
        "timestamp": "2025-12-25T16:53:13.373841+00:00",
        "meta_object_name": "2025-284B",
        "meta_object_id": "2025-284B",
        "meta_epoch": "2025-12-16T06:51:11.417184",
        "meta_mean_motion": 15.18985981,
        "meta_eccentricity": 0.00081793,
        "meta_inclination": 80.4045,
        "meta_ra_of_asc_node": 125.2713,
        "meta_arg_of_pericenter": 234.9626,
        "meta_mean_anomaly": 125.0834,
        "meta_ephemeris_type": 0,
        "meta_classification_type": "U",
        "meta_norad_cat_id": 66914,
        "meta_element_set_no": 999,
        "meta_rev_at_epoch": 166,
        "meta_bstar": 0.00038444995,
        "meta_mean_motion_dot": 8.068e-05,
        "meta_mean_motion_ddot": 0,
        "tle_line1": "1 66914U 25284B   25350.28554881  .00008068  00000+0  38445-3 0  9991",
        "tle_line2": "2 66914  80.4045 125.2713 0008179 234.9626 125.0834 15.18985981  1668"
      },
      "geometry": {
        "type": "Point",
        "coordinates": [
          112.16032112792473,
          -6.894206835558296
        ]
      }
    },
    {
      "type": "Feature",
      "properties": {
        "norad_id": 66915,
        "name": "HULIANWANG DIGUI-105",
        "group": "last-30-days",
        "lat": -31.32112553973576,
        "lon": -84.79897175960014,
        "alt_km": 885.8914221232089,
        "timestamp": "2025-12-25T16:53:13.373851+00:00",
        "meta_object_name": "HULIANWANG DIGUI-105",
        "meta_object_id": "2025-285A",
        "meta_epoch": "2025-12-25T07:17:12.989184",
        "meta_mean_motion": 14.0371992,
        "meta_eccentricity": 0.00081194,
        "meta_inclination": 50.0055,
        "meta_ra_of_asc_node": 66.1116,
        "meta_arg_of_pericenter": 324.6615,
        "meta_mean_anomaly": 35.375,
        "meta_ephemeris_type": 0,
        "meta_classification_type": "U",
        "meta_norad_cat_id": 66915,
        "meta_element_set_no": 999,
        "meta_rev_at_epoch": 267,
        "meta_bstar": 0.00012125035,
        "meta_mean_motion_dot": 4e-07,
        "meta_mean_motion_ddot": 0,
        "tle_line1": "1 66915U 25285A   25359.30362256  .00000040  00000+0  12125-3 0  9997",
        "tle_line2": "2 66915  50.0055  66.1116 0008119 324.6615  35.3750 14.03719920  2675"
      },
      "geometry": {
        "type": "Point",
        "coordinates": [
          -84.79897175960014,
          -31.32112553973576
        ]
      }
    },
    {
      "type": "Feature",
      "properties": {
        "norad_id": 66916,
        "name": "HULIANWANG DIGUI-106",
        "group": "last-30-days",
        "lat": -40.03863253794538,
        "lon": -70.68570240913802,
        "alt_km": 884.3952822489427,
        "timestamp": "2025-12-25T16:53:13.373864+00:00",
        "meta_object_name": "HULIANWANG DIGUI-106",
        "meta_object_id": "2025-285B",
        "meta_epoch": "2025-12-25T07:13:06.708576",
        "meta_mean_motion": 14.03704707,
        "meta_eccentricity": 0.00069078,
        "meta_inclination": 50.0065,
        "meta_ra_of_asc_node": 66.0988,
        "meta_arg_of_pericenter": 317.9337,
        "meta_mean_anomaly": 42.1037,
        "meta_ephemeris_type": 0,
        "meta_classification_type": "U",
        "meta_norad_cat_id": 66916,
        "meta_element_set_no": 999,
        "meta_rev_at_epoch": 267,
        "meta_bstar": 0.00010976817,
        "meta_mean_motion_dot": 2.2e-07,
        "meta_mean_motion_ddot": 0,
        "tle_line1": "1 66916U 25285B   25359.30077209  .00000022  00000+0  10977-3 0  9992",
        "tle_line2": "2 66916  50.0065  66.0988 0006907 317.9337  42.1037 14.03704707  2673"
      },
      "geometry": {
        "type": "Point",
        "coordinates": [
          -70.68570240913802,
          -40.03863253794538
        ]
      }
    },
    {
      "type": "Feature",
      "properties": {
        "norad_id": 66917,
        "name": "HULIANWANG DIGUI-107",
        "group": "last-30-days",
        "lat": -44.28681419884254,
        "lon": -60.59255078165296,
        "alt_km": 884.730147991977,
        "timestamp": "2025-12-25T16:53:13.373874+00:00",
        "meta_object_name": "HULIANWANG DIGUI-107",
        "meta_object_id": "2025-285C",
        "meta_epoch": "2025-12-25T07:10:38.371872",
        "meta_mean_motion": 14.03664742,
        "meta_eccentricity": 0.00075536,
        "meta_inclination": 50.0031,
        "meta_ra_of_asc_node": 66.0816,
        "meta_arg_of_pericenter": 327.3277,
        "meta_mean_anomaly": 32.716,
        "meta_ephemeris_type": 0,
        "meta_classification_type": "U",
        "meta_norad_cat_id": 66917,
        "meta_element_set_no": 999,
        "meta_rev_at_epoch": 267,
        "meta_bstar": 0.00010943427,
        "meta_mean_motion_dot": 2.2e-07,
        "meta_mean_motion_ddot": 0,
        "tle_line1": "1 66917U 25285C   25359.29905523  .00000022  00000+0  10943-3 0  9993",
        "tle_line2": "2 66917  50.0031  66.0816 0007553 327.3277  32.7160 14.03664742  2679"
      },
      "geometry": {
        "type": "Point",
        "coordinates": [
          -60.59255078165296,
          -44.28681419884254
        ]
      }
    },
    {
      "type": "Feature",
      "properties": {
        "norad_id": 66918,
        "name": "HULIANWANG DIGUI-108",
        "group": "last-30-days",
        "lat": -45.487014284613345,
        "lon": -56.935834276834164,
        "alt_km": 884.3798845145084,
        "timestamp": "2025-12-25T16:53:13.373884+00:00",
        "meta_object_name": "HULIANWANG DIGUI-108",
        "meta_object_id": "2025-285D",
        "meta_epoch": "2025-12-25T07:09:48.182112",
        "meta_mean_motion": 14.03603859,
        "meta_eccentricity": 0.00066781,
        "meta_inclination": 50.0063,
        "meta_ra_of_asc_node": 66.0833,
        "meta_arg_of_pericenter": 321.9063,
        "meta_mean_anomaly": 38.1368,
        "meta_ephemeris_type": 0,
        "meta_classification_type": "U",
        "meta_norad_cat_id": 66918,
        "meta_element_set_no": 999,
        "meta_rev_at_epoch": 267,
        "meta_bstar": 0.00011626576,
        "meta_mean_motion_dot": 3.2e-07,
        "meta_mean_motion_ddot": 0,
        "tle_line1": "1 66918U 25285D   25359.29847433  .00000032  00000+0  11627-3 0  9990",
        "tle_line2": "2 66918  50.0063  66.0833 0006678 321.9063  38.1368 14.03603859  2676"
      },
      "geometry": {
        "type": "Point",
        "coordinates": [
          -56.935834276834164,
          -45.487014284613345
        ]
      }
    }
  ]
}